FENGYUN 1C DEB          
1 37579U 99025EKC 17338.25025406  .00000617  00000-0  35623-3 0  9998
2 37579  99.3162 136.3212 0038893 317.8063  42.0116 14.12668444477507
